QIANFAN-25              
1 61558U 24185G   25310.77982135  .00000740  00000+0  44393-3 0  9994
2 61558  88.9789  82.2516 0010849  63.6671 296.5624 14.05856329 64457
QIANFAN-26              
1 61559U 24185H   25310.72712106  .00000413  00000+0  39981-3 0  9993
2 61559  88.9788  83.6307 0007469 115.6197 244.5742 13.77781109 63718
QIANFAN-27              
1 61560U 24185J   25310.78356612  .00000963  00000+0  38795-3 0  9999
2 61560  88.9784  81.1521 0009447  57.1670 303.0433 14.27260399 65035
QIANFAN-28              
1 61561U 24185K   25310.78285449  .00001459  00000+0  58346-3 0  9994
2 61561  88.9802  81.1525 0008661  57.9885 302.2149 14.27916746 65044
QIANFAN-29              
1 61562U 24185L   25310.74433991  .00000239  00000+0  35176-3 0  9999
2 61562  88.9763  85.0235 0011142 148.2576 211.9249 13.50991937 62933
QIANFAN-30              
1 61563U 24185M   25310.69196479  .00000240  00000+0  35874-3 0  9998
2 61563  88.9783  84.5404 0008896 133.5645 226.6246 13.49968491 63202
QIANFAN-31              
1 61564U 24185N   25310.72459403  .00000282  00000+0  37434-3 0  9992
2 61564  88.9768  84.3962 0008598 129.2477 230.9442 13.57944608 63273
QIANFAN-32              
1 61565U 24185P   25310.75438520  .00000138  00000+0  19648-3 0  9990
2 61565  88.9826  84.6572 0010139 158.5761 201.5816 13.50718416 63182
